ONEWEB-0012             
1 44057U 19010A   26176.15685534  .00000014  00000+0  42583-5 0  9991
2 44057  87.9089 227.2025 0001843  85.8975 274.2367 13.16595120352612
ONEWEB-0010             
1 44058U 19010B   26176.18218767  .00000021  00000+0  20456-4 0  9997
2 44058  87.9089 227.1935 0001999 106.6524 253.4827 13.16594994352669
ONEWEB-0008             
1 44059U 19010C   26176.13151316  .00000022  00000+0  23887-4 0  9991
2 44059  87.9090 227.1989 0002315  94.7749 265.3646 13.16596165352775
ONEWEB-0007             
1 44060U 19010D   26176.17294858 -.00000132  00000+0 -38341-3 0  9990
2 44060  87.9002 257.6306 0001719 102.5259 257.6064 13.15548737352423
ONEWEB-0006             
1 44061U 19010E   26176.17689332 -.00000080  00000+0 -24619-3 0  9991
2 44061  87.9010 257.5948 0001954 103.8556 256.2792 13.15549768352472
ONEWEB-0011             
1 44062U 19010F   26175.15646931  .00000063  00000+0  13388-3 0  9997
2 44062  87.9011 257.8074 0002167 103.5971 256.5401 13.15548045352334
ONEWEB-0013             
1 45131U 20008A   26176.11678625  .00000329  00000+0  91802-3 0  9998
2 45131  87.8505  51.2250 0001911  51.5098 308.6200 13.09454222307106
ONEWEB-0017             
1 45132U 20008B   26176.09365367 -.00000555  00000+0 -16251-2 0  9999
2 45132  87.8825  34.6940 0001785  91.8040 268.3292 13.10363933308986
ONEWEB-0020             
1 45133U 20008C   26176.13947845 -.00006987  00000+0 -20055-1 0  9993
2 45133  87.8825  34.6831 0001426 103.7932 256.3354 13.10418946309387
ONEWEB-0021             
1 45134U 20008D   26176.15473241 -.00003221  00000+0 -92643-2 0  9991
2 45134  87.8818  34.6951 0001516  87.0518 273.0783 13.10397901309690
ONEWEB-0023             
1 45136U 20008F   26176.08941572 -.00000529  00000+0 -15516-2 0  9994
2 45136  87.8827  34.6913 0001976  80.9836 279.1515 13.10374523309117
ONEWEB-0024             
1 45137U 20008G   26176.13789580 -.00006229  00000+0 -17880-1 0  9998
2 45137  87.8831  34.6742 0001411 105.8231 254.3052 13.10420874309283
ONEWEB-0025             
1 45138U 20008H   26176.13763341 -.00006549  00000+0 -18797-1 0  9999
2 45138  87.8838  34.6644 0002296  87.8374 272.3016 13.10416877309616
ONEWEB-0026             
1 45139U 20008J   26176.09343242  .00000602  00000+0  16626-2 0  9991
2 45139  87.8881  19.4940 0001893  91.5689 268.5656 13.11416165312148
ONEWEB-0028             
1 45140U 20008K   26176.06883543 -.00000148  00000+0 -45244-3 0  9999
2 45140  87.8879  19.5072 0001780  68.2316 291.9002 13.11417108309652
ONEWEB-0032             
1 45141U 20008L   26176.09547426 -.00000126  00000+0 -39809-3 0  9996
2 45141  87.8830  34.6950 0002027  70.7497 289.3849 13.10361493309335
ONEWEB-0033             
1 45142U 20008M   26176.14625256 -.00004906  00000+0 -14092-1 0  9996
2 45142  87.8819  34.6916 0002019 100.6327 259.5027 13.10403158309254
ONEWEB-0035             
1 45143U 20008N   26176.16673368 -.00000370  00000+0 -10976-2 0  9995
2 45143  87.8824  34.6806 0001817  87.7595 272.3741 13.10375351308984
ONEWEB-0036             
1 45144U 20008P   26176.14427566  .00004050  00000+0  11623-1 0  9997
2 45144  87.8839  34.6992 0001413  79.2050 280.9236 13.10007400309400
ONEWEB-0038             
1 45145U 20008Q   26176.10374128  .00000405  00000+0  11061-2 0  9996
2 45145  87.8896  19.5018 0000345 155.0301 205.0843 13.11414376311365
ONEWEB-0039             
1 45146U 20008R   26175.00428987  .00000226  00000+0  60914-3 0  9991
2 45146  87.8811  34.9096 0001780  67.5775 292.5541 13.10448247309058
ONEWEB-0040             
1 45147U 20008S   26175.15021025  .00000429  00000+0  11912-2 0  9998
2 45147  87.8799  34.8898 0001145  79.8071 280.3186 13.10434898308778
ONEWEB-0043             
1 45149U 20008U   26176.14457088 -.00007056  00000+0 -20258-1 0  9999
2 45149  87.8808  34.6812 0001474  54.9616 305.1650 13.10397375309220
ONEWEB-0044             
1 45150U 20008V   26176.17340104 -.00000543  00000+0 -15917-2 0  9995
2 45150  87.8836  34.6768 0001759  79.0984 281.0341 13.10351076309525
ONEWEB-0045             
1 45151U 20008W   26176.09852003  .00000532  00000+0  14651-2 0  9993
2 45151  87.8891  19.4849 0001718  83.7837 276.3486 13.11415628311448
ONEWEB-0047             
1 45152U 20008X   26176.16646103 -.00000506  00000+0 -14846-2 0  9993
2 45152  87.8834  34.6773 0001661  90.0341 270.0977 13.10374596309247
ONEWEB-0048             
1 45153U 20008Y   26176.16151897 -.00000461  00000+0 -13563-2 0  9990
2 45153  87.8820  34.6988 0001797  91.0064 269.1269 13.10396919308856
ONEWEB-0049             
1 45154U 20008Z   26176.08840953 -.00001131  00000+0 -32778-2 0  9994
2 45154  87.8821  34.7029 0002187  79.6836 280.4538 13.10377623309068
ONEWEB-0051             
1 45155U 20008AA  26176.09682859  .00001664  00000+0  46587-2 0  9997
2 45155  87.8884  19.4927 0001412 105.6776 254.4508 13.11417643312125
ONEWEB-0052             
1 45156U 20008AB  26176.10905723  .00003018  00000+0  86111-2 0  9990
2 45156  87.8839  34.6853 0002521  75.0674 285.0733 13.10342519308978
